LEMUR-1                 
1 40044U 14033AL  26185.13609872  .00002186  00000+0  25543-3 0  9999
2 40044  97.7895 334.5665 0048710  24.1517 336.1967 14.85310183647984
LEMUR-2-GREENBERG       
1 42837U 17042N   26185.46590226  .00024909  00000+0  80942-3 0  9993
2 42837  97.3827   6.0171 0007279 305.7985  54.2579 15.31879629491039
LEMUR-2-ANDIS           
1 42838U 17042P   26185.25928255  .00033593  00000+0  97068-3 0  9994
2 42838  97.3685   6.0558 0007223 304.5319  55.5242 15.35550599491079
LEMUR-2-MONSON          
1 42839U 17042Q   26185.25047873  .00021683  00000+0  78238-3 0  9998
2 42839  97.4090   5.7483 0005203 295.2682  64.8018 15.28515854490776
LEMUR-2-FURIAUS         
1 42840U 17042R   26185.21018210  .00024129  00000+0  81031-3 0  9992
2 42840  97.3776   3.6789 0006907  12.1279 348.0127 15.30826092490819
LEMUR-2-PETERG          
1 42841U 17042S   26185.25385165  .00037047  00000+0  11012-2 0  9997
2 42841  97.3995  10.3194 0002786 274.0784  86.0140 15.34660691491055
LEMUR-2-DEMBITZ         
1 42842U 17042T   26185.22981836  .00022800  00000+0  76622-3 0  9992
2 42842  97.3827   6.7348 0005416 323.7890  36.2983 15.30823643490957
LEMUR-2-ZACHARY         
1 42845U 17042W   26185.48054404  .00075267  00000+0  12489-2 0  9990
2 42845  97.3588  17.5017 0002384 302.0991  58.0030 15.51861061491887
LEMUR-2-AMANDA-SVANTE   
1 48269U 21034B   26184.72218815  .00036457  00000+0  10612-2 0  9990
2 48269  97.5753 263.4542 0003868 168.8216 191.3113 15.35322296283594
LEMUR-2-SPECIAL-K       
1 48273U 21034F   26185.51748154  .00398477  00000+0  31040-2 0  9998
2 48273  97.5637 273.7005 0005614 222.0679 138.0153 15.70518084284409
LEMUR-2-EMBRIONOVIS     
1 56970U 23084AQ  26185.64091916  .00025842  00000+0  69115-3 0  9997
2 56970  97.6316 330.5169 0007641 248.0379 112.0053 15.38015741170363
LEMUR-2-DEVERILL-M-T    
1 57391U 23100F   26185.38635721  .00039648  00000+0  97150-3 0  9992
2 57391  99.4455 229.1218 0004930 344.4163  15.6925 15.40635469163897
LEMUR-2-BASS            
1 58259U 23174D   26184.74345391  .00020308  00000+0  45159-3 0  9992
2 58259  97.3847 269.6928 0008049 112.3430 247.8671 15.43659511147913
LEMUR-2-JK0903EM1407    
1 58336U 23174CJ  26185.22860681  .00038967  00000+0  63368-3 0  9998
2 58336  97.3923 276.1897 0004465  68.8565 291.3164 15.52578542148370
LEMUR-2-MJR092620       
1 58340U 23174CN  26185.51432830  .00038574  00000+0  80160-3 0  9999
2 58340  97.3975 275.8694 0006205  65.5040 294.6855 15.45546370148323
LEMUR-2-NIMBUS2000      
1 58899U 24022A   26185.03434160  .00029162  00000+0  71327-3 0  9994
2 58899  97.4090  35.2523 0009768  64.6794 295.5463 15.40707114134862
LEMUR-2-VALHALLA        
1 58900U 24022B   26185.03500643  .00019924  00000+0  49676-3 0  9994
2 58900  97.4085  35.2329 0010284  60.2993 299.9276 15.40195193134869
LEMUR-2-CAEL            
1 58903U 24022E   26185.03041249  .00021527  00000+0  51358-3 0  9991
2 58903  97.4069  36.1943 0008340  46.7317 313.4624 15.41534845134934
LEMUR-2-JOHNNYTRUONG    
1 59146U 24043BA  26185.39291360  .00056885  00000+0  65452-3 0  9999
2 59146  97.5391 338.1783 0004555 124.7433 235.4254 15.61818849130726
LEMUR-2-TOMATOKECHUP    
1 60471U 24149D   26185.49912609  .00021268  00000+0  60014-3 0  9992
2 60471  97.3793 267.5937 0002803 142.1058 218.0383 15.36409366104824
LEMUR-2-STELLA          
1 60533U 24149BT  26184.75924016  .00013429  00000+0  78153-3 0  9997
2 60533  97.6735 267.2900 0001269 101.6081 258.5292 15.12166400103000
LEMUR-2-MARHISYAM       
1 60536U 24149BW  26185.20908443  .00013632  00000+0  80573-3 0  9992
2 60536  97.6878 268.2083 0003135  87.7673 272.3915 15.11598158103058
LEMUR-2-AHMED-ASRAR     
1 60576U 24149DN  26185.49114624  .00018378  00000+0  10396-2 0  9994
2 60576  97.7006 270.6523 0000417 299.3717  60.7472 15.13116309103189
LEMUR-2-LLOYD           
1 60577U 24149DP  26185.47742288  .00016153  00000+0  10076-2 0  9990
2 60577  97.6743 266.6189 0005209  97.3125 262.8696 15.09588412103000
LEMUR-2-SQUIRRELCOMM    
1 60578U 24149DQ  26185.11797402  .00008376  00000+0  55793-3 0  9994
2 60578  97.6701 265.9770 0005054   7.4037 352.7264 15.07345620102958
LEMUR-2-SIERRINI        
1 60579U 24149DR  26185.50083692  .00024779  00000+0  14691-2 0  9993
2 60579  97.6840 268.1731 0006475 118.1822 242.0062 15.11339599103079
LEMUR-2-WILSON          
1 62694U 25009CP  26185.49476189  .00004314  00000+0  39714-3 0  9991
2 62694  97.7019 263.6559 0002765  12.1137 348.0150 14.95245400 79947
LEMUR-2-STAR-FOX        
1 62696U 25009CR  26185.47340701  .00010932  00000+0  82180-3 0  9999
2 62696  97.6936 266.9592 0003735  76.2779 283.8862 15.02737852 80157
LEMUR-2-ARIANNA         
1 62699U 25009CU  26185.47187247  .00011032  00000+0  82933-3 0  9994
2 62699  97.6877 266.7187 0004059  80.8068 279.3616 15.02735635 80158
